start=new Date('2022-01-24T00:00:00.000Z').valueOf();
sats=[{"MEAN_MOTION_DOT":"0.00002374","INCLINATION":"53.0559","LAUNCH_DATE":"2020-10-06","SEMIMAJOR_AXIS":"6925.377","EPHEMERIS_TYPE":"0","ARG_OF_PERICENTER":"78.0201","TLE_LINE1":"1 46534U 20070C   22023.46890546  .00002374  00000-0  17825-3 0  9994","BSTAR":"0.00017825000000","PERIOD":"95.593","PERIAPSIS":"546.387","ECCENTRICITY":"0.00012350","REF_FRAME":"TEME","TIME_SYSTEM":"UTC","FILE":"3280923","OBJECT_ID":"2020-070C","MEAN_ELEMENT_THEORY":"SGP4","EPOCH":"2022-01-23T11:15:13.431744","RCS_SIZE":"LARGE","APOAPSIS":"548.097","ELEMENT_SET_NO":"999","MEAN_ANOMALY":"282.0927","GP_ID":"194463752","DECAY_DATE":null,"RA_OF_ASC_NODE":"98.3028","OBJECT_TYPE":"PAYLOAD","REV_AT_EPOCH":"7248","MEAN_MOTION_DDOT":"0.0000000000000","CLASSIFICATION_TYPE":"U","CENTER_NAME":"EARTH","NORAD_CAT_ID":"46534","MEAN_MOTION":"15.06390712","COUNTRY_CODE":"US","TLE_LINE2":"2 46534  53.0559  98.3028 0001235  78.0201 282.0927 15.06390712 72485","OBJECT_NAME":"STARLINK-1659","SITE":"AFETR"},{"INCLINATION":"53.0546","MEAN_MOTION_DOT":"0.00002414","EPHEMERIS_TYPE":"0","TLE_LINE1":"1 46535U 20070D   22023.52418730  .00002414  00000-0  18087-3 0  9999","ARG_OF_PERICENTER":"79.7768","LAUNCH_DATE":"2020-10-06","SEMIMAJOR_AXIS":"6925.354","PERIAPSIS":"546.347","PERIOD":"95.592","BSTAR":"0.00018087000000","TIME_SYSTEM":"UTC","REF_FRAME":"TEME","ECCENTRICITY":"0.00012580","MEAN_ANOMALY":"280.3363","OBJECT_ID":"2020-070D","FILE":"3280923","RCS_SIZE":"LARGE","APOAPSIS":"548.090","ELEMENT_SET_NO":"999","EPOCH":"2022-01-23T12:34:49.782720","MEAN_ELEMENT_THEORY":"SGP4","MEAN_MOTION_DDOT":"0.0000000000000","REV_AT_EPOCH":"7248","DECAY_DATE":null,"GP_ID":"194464004","OBJECT_TYPE":"PAYLOAD","RA_OF_ASC_NODE":"98.0633","MEAN_MOTION":"15.06398356","COUNTRY_CODE":"US","NORAD_CAT_ID":"46535","CENTER_NAME":"EARTH","CLASSIFICATION_TYPE":"U","OBJECT_NAME":"STARLINK-1663","SITE":"AFETR","TLE_LINE2":"2 46535  53.0546  98.0633 0001258  79.7768 280.3363 15.06398356 72489"},{"INCLINATION":"53.0505","MEAN_MOTION_DOT":"0.00162102","ARG_OF_PERICENTER":"37.1943","TLE_LINE1":"1 46536U 20070E   22023.30724122  .00162102  00000-0  62124-3 0  9993","EPHEMERIS_TYPE":"0","SEMIMAJOR_AXIS":"6690.932","LAUNCH_DATE":"2020-10-06","PERIAPSIS":"301.692","BSTAR":"0.00062124000000","PERIOD":"90.780","TIME_SYSTEM":"UTC","ECCENTRICITY":"0.00165970","REF_FRAME":"TEME","MEAN_ANOMALY":"323.0226","MEAN_ELEMENT_THEORY":"SGP4","EPOCH":"2022-01-23T07:22:25.641408","RCS_SIZE":"LARGE","APOAPSIS":"323.902","ELEMENT_SET_NO":"999","FILE":"3280923","OBJECT_ID":"2020-070E","REV_AT_EPOCH":"7342","MEAN_MOTION_DDOT":"0.0000000000000","RA_OF_ASC_NODE":"30.1134","OBJECT_TYPE":"PAYLOAD","GP_ID":"194464247","DECAY_DATE":null,"NORAD_CAT_ID":"46536","MEAN_MOTION":"15.86254330","COUNTRY_CODE":"US","CLASSIFICATION_TYPE":"U","CENTER_NAME":"EARTH","SITE":"AFETR","OBJECT_NAME":"STARLINK-1668","TLE_LINE2":"2 46536  53.0505  30.1134 0016597  37.1943 323.0226 15.86254330 73422"},{"REF_FRAME":"TEME","ECCENTRICITY":"0.00014240","TIME_SYSTEM":"UTC","PERIOD":"95.591","BSTAR":"0.00078841000000","PERIAPSIS":"546.166","SEMIMAJOR_AXIS":"6925.288","LAUNCH_DATE":"2020-10-06","TLE_LINE1":"1 46537U 20070F   22023.54998724  .00011488  00000-0  78841-3 0  9994","ARG_OF_PERICENTER":"85.9593","EPHEMERIS_TYPE":"0","MEAN_MOTION_DOT":"0.00011488","INCLINATION":"53.0522","TLE_LINE2":"2 46537  53.0522  97.9434 0001424  85.9593 274.1558 15.06419885 72491","SITE":"AFETR","OBJECT_NAME":"STARLINK-1672","CLASSIFICATION_TYPE":"U","CENTER_NAME":"EARTH","MEAN_MOTION":"15.06419885","COUNTRY_CODE":"US","NORAD_CAT_ID":"46537","OBJECT_TYPE":"PAYLOAD","RA_OF_ASC_NODE":"97.9434","DECAY_DATE":null,"GP_ID":"194463503","MEAN_MOTION_DDOT":"0.0000000000000","REV_AT_EPOCH":"7249","EPOCH":"2022-01-23T13:11:58.897536","RCS_SIZE":"LARGE","APOAPSIS":"548.139","ELEMENT_SET_NO":"999","MEAN_ELEMENT_THEORY":"SGP4","OBJECT_ID":"2020-070F","FILE":"3280923","MEAN_ANOMALY":"274.1558"},{"LAUNCH_DATE":"2020-10-06","SEMIMAJOR_AXIS":"6925.347","EPHEMERIS_TYPE":"0","ARG_OF_PERICENTER":"74.7323","TLE_LINE1":"1 46538U 20070G   22023.46150780  .00001572  00000-0  12441-3 0  9995","MEAN_MOTION_DOT":"0.00001572","INCLINATION":"53.0540","ECCENTRICITY":"0.00012170","REF_FRAME":"TEME","TIME_SYSTEM":"UTC","BSTAR":"0.00012441000000","PERIOD":"95.592","PERIAPSIS":"546.370","GP_ID":"194463253","DECAY_DATE":null,"RA_OF_ASC_NODE":"98.3398","OBJECT_TYPE":"PAYLOAD","REV_AT_EPOCH":"7247","MEAN_MOTION_DDOT":"0.0000000000000","FILE":"3280923","OBJECT_ID":"2020-070G","MEAN_ELEMENT_THEORY":"SGP4","RCS_SIZE":"LARGE","ELEMENT_SET_NO":"999","APOAPSIS":"548.055","EPOCH":"2022-01-23T11:04:34.273920","MEAN_ANOMALY":"285.3800","TLE_LINE2":"2 46538  53.0540  98.3398 0001217  74.7323 285.3800 15.06400397 72473","OBJECT_NAME":"STARLINK-1678","SITE":"AFETR","CENTER_NAME":"EARTH","CLASSIFICATION_TYPE":"U","NORAD_CAT_ID":"46538","MEAN_MOTION":"15.06400397","COUNTRY_CODE":"US"},{"REV_AT_EPOCH":"7236","MEAN_MOTION_DDOT":"0.0000000000000","GP_ID":"194471628","DECAY_DATE":null,"RA_OF_ASC_NODE":"87.1229","OBJECT_TYPE":"PAYLOAD","MEAN_ANOMALY":"319.1208","FILE":"3281120","OBJECT_ID":"2020-070H","MEAN_ELEMENT_THEORY":"SGP4","RCS_SIZE":"LARGE","EPOCH":"2022-01-23T13:47:01.751712","APOAPSIS":"404.420","ELEMENT_SET_NO":"999","OBJECT_NAME":"STARLINK-1684","SITE":"AFETR","TLE_LINE2":"2 46539  53.0489  87.1229 0001976  40.9950 319.1208 15.54681561 72361","NORAD_CAT_ID":"46539","COUNTRY_CODE":"US","MEAN_MOTION":"15.54681561","CENTER_NAME":"EARTH","CLASSIFICATION_TYPE":"U","EPHEMERIS_TYPE":"0","ARG_OF_PERICENTER":"40.9950","TLE_LINE1":"1 46539U 20070H   22023.57432583  .00171674  00000-0  24971-2 0  9993","LAUNCH_DATE":"2020-10-06","SEMIMAJOR_AXIS":"6781.215","INCLINATION":"53.0489","MEAN_MOTION_DOT":"0.00171674","TIME_SYSTEM":"UTC","ECCENTRICITY":"0.00019760","REF_FRAME":"TEME","PERIAPSIS":"401.740","BSTAR":"0.00249710000000","PERIOD":"92.623"},{"ARG_OF_PERICENTER":"89.3226","TLE_LINE1":"1 46541U 20070K   22023.44124883  .00001274  00000-0  10443-3 0  9991","EPHEMERIS_TYPE":"0","SEMIMAJOR_AXIS":"6925.365","LAUNCH_DATE":"2020-10-06","INCLINATION":"53.0565","MEAN_MOTION_DOT":"0.00001274","TIME_SYSTEM":"UTC","ECCENTRICITY":"0.00014210","REF_FRAME":"TEME","PERIAPSIS":"546.246","BSTAR":"0.00010443000000","PERIOD":"95.592","REV_AT_EPOCH":"7275","MEAN_MOTION_DDOT":"0.0000000000000","RA_OF_ASC_NODE":"78.4234","OBJECT_TYPE":"PAYLOAD","GP_ID":"194464747","DECAY_DATE":null,"MEAN_ANOMALY":"270.7925","MEAN_ELEMENT_THEORY":"SGP4","RCS_SIZE":"LARGE","EPOCH":"2022-01-23T10:35:23.898912","APOAPSIS":"548.214","ELEMENT_SET_NO":"999","FILE":"3280923","OBJECT_ID":"2020-070K","SITE":"AFETR","OBJECT_NAME":"STARLINK-1687","TLE_LINE2":"2 46541  53.0565  78.4234 0001421  89.3226 270.7925 15.06394659 72753","NORAD_CAT_ID":"46541","COUNTRY_CODE":"US","MEAN_MOTION":"15.06394659","CLASSIFICATION_TYPE":"U","CENTER_NAME":"EARTH"},{"EPHEMERIS_TYPE":"0","ARG_OF_PERICENTER":"85.8319","TLE_LINE1":"1 46542U 20070L   22023.50944337  .00002454  00000-0  18361-3 0  9991","LAUNCH_DATE":"2020-10-06","SEMIMAJOR_AXIS":"6925.372","INCLINATION":"53.0544","MEAN_MOTION_DOT":"0.00002454","TIME_SYSTEM":"UTC","ECCENTRICITY":"0.00012820","REF_FRAME":"TEME","PERIAPSIS":"546.349","BSTAR":"0.00018361000000","PERIOD":"95.593","REV_AT_EPOCH":"7248","MEAN_MOTION_DDOT":"0.0000000000000","GP_ID":"194463004","DECAY_DATE":null,"RA_OF_ASC_NODE":"98.1270","OBJECT_TYPE":"PAYLOAD","MEAN_ANOMALY":"274.2816","FILE":"3280923","OBJECT_ID":"2020-070L","MEAN_ELEMENT_THEORY":"SGP4","EPOCH":"2022-01-23T12:13:35.907168","RCS_SIZE":"LARGE","APOAPSIS":"548.125","ELEMENT_SET_NO":"999","OBJECT_NAME":"STARLINK-1692","SITE":"AFETR","TLE_LINE2":"2 46542  53.0544  98.1270 0001282  85.8319 274.2816 15.06392450 72484","NORAD_CAT_ID":"46542","MEAN_MOTION":"15.06392450","COUNTRY_CODE":"US","CLASSIFICATION_TYPE":"U","CENTER_NAME":"EARTH"},{"LAUNCH_DATE":"2020-10-06","SEMIMAJOR_AXIS":"6925.352","EPHEMERIS_TYPE":"0","TLE_LINE1":"1 46543U 20070M   22023.49468466  .00001084  00000-0  91638-4 0  9991","ARG_OF_PERICENTER":"57.0305","MEAN_MOTION_DOT":"0.00001084","INCLINATION":"53.0546","REF_FRAME":"TEME","ECCENTRICITY":"0.00012910","TIME_SYSTEM":"UTC","PERIOD":"95.592","BSTAR":"0.00009163800000","PERIAPSIS":"546.323","DECAY_DATE":null,"GP_ID":"194463753","OBJECT_TYPE":"PAYLOAD","RA_OF_ASC_NODE":"98.1839","MEAN_MOTION_DDOT":"0.0000000000000","REV_AT_EPOCH":"7248","OBJECT_ID":"2020-070M","FILE":"3280923","ELEMENT_SET_NO":"999","RCS_SIZE":"LARGE","APOAPSIS":"548.111","EPOCH":"2022-01-23T11:52:20.754624","MEAN_ELEMENT_THEORY":"SGP4","MEAN_ANOMALY":"303.0808","TLE_LINE2":"2 46543  53.0546  98.1839 0001291  57.0305 303.0808 15.06398903 72485","OBJECT_NAME":"STARLINK-1693","SITE":"AFETR","CENTER_NAME":"EARTH","CLASSIFICATION_TYPE":"U","COUNTRY_CODE":"US","MEAN_MOTION":"15.06398903","NORAD_CAT_ID":"46543"},{"SEMIMAJOR_AXIS":"6925.331","LAUNCH_DATE":"2020-10-06","ARG_OF_PERICENTER":"60.7302","TLE_LINE1":"1 46544U 20070N   22023.55689134  .00002799  00000-0  20667-3 0  9993","EPHEMERIS_TYPE":"0","MEAN_MOTION_DOT":"0.00002799","INCLINATION":"53.0542","ECCENTRICITY":"0.00013660","REF_FRAME":"TEME","TIME_SYSTEM":"UTC","BSTAR":"0.00020667000000","PERIOD":"95.592","PERIAPSIS":"546.250","RA_OF_ASC_NODE":"82.9128","OBJECT_TYPE":"PAYLOAD","GP_ID":"194464005","DECAY_DATE":null,"REV_AT_EPOCH":"7270","MEAN_MOTION_DDOT":"0.0000000000000","MEAN_ELEMENT_THEORY":"SGP4","EPOCH":"2022-01-23T13:21:55.411776","RCS_SIZE":"LARGE","APOAPSIS":"548.142","ELEMENT_SET_NO":"999","FILE":"3280923","OBJECT_ID":"2020-070N","MEAN_ANOMALY":"299.3824","TLE_LINE2":"2 46544  53.0542  82.9128 0001366  60.7302 299.3824 15.06405883 72701","SITE":"AFETR","OBJECT_NAME":"STARLINK-1694","CLASSIFICATION_TYPE":"U","CENTER_NAME":"EARTH","NORAD_CAT_ID":"46544","COUNTRY_CODE":"US","MEAN_MOTION":"15.06405883"}];
